start=new Date('2021-10-09T00:00:00.000Z').valueOf();
sats=[{"MEAN_ANOMALY":"245.6764","ELEMENT_SET_NO":"999","TIME_SYSTEM":"UTC","EPHEMERIS_TYPE":"0","CENTER_NAME":"EARTH","MEAN_MOTION_DOT":"0.00000586","PERIOD":"95.592","ARG_OF_PERICENTER":"114.4373","OBJECT_NAME":"STARLINK-1834","APOAPSIS":"548.211","NORAD_CAT_ID":"46781","REF_FRAME":"TEME","BSTAR":"0.00005824900000","ECCENTRICITY":"0.00014200","OBJECT_ID":"2020-074AU","CLASSIFICATION_TYPE":"U","OBJECT_TYPE":"PAYLOAD","COUNTRY_CODE":"US","RA_OF_ASC_NODE":"2.9558","MEAN_MOTION":"15.06395396","MEAN_MOTION_DDOT":"0.0000000000000","REV_AT_EPOCH":"5355","LAUNCH_DATE":"2020-10-24","INCLINATION":"53.0559","GP_ID":"186595627","EPOCH":"2021-10-08T14:58:43.380480","DECAY_DATE":null,"MEAN_ELEMENT_THEORY":"SGP4","FILE":"3152020","SEMIMAJOR_AXIS":"6925.363","SITE":"AFETR","TLE_LINE2":"2 46781  53.0559   2.9558 0001420 114.4373 245.6764 15.06395396 53553","RCS_SIZE":"LARGE","PERIAPSIS":"546.244","TLE_LINE1":"1 46781U 20074AU  21281.62411320  .00000586  00000-0  58249-4 0  9993"},{"EPOCH":"2021-10-08T14:17:34.993824","DECAY_DATE":null,"INCLINATION":"53.0540","GP_ID":"186595877","LAUNCH_DATE":"2020-10-24","MEAN_MOTION_DDOT":"0.0000000000000","REV_AT_EPOCH":"5368","MEAN_MOTION":"15.06390058","RA_OF_ASC_NODE":"353.0930","COUNTRY_CODE":"US","OBJECT_TYPE":"PAYLOAD","RCS_SIZE":"LARGE","PERIAPSIS":"546.338","TLE_LINE1":"1 46782U 20074AV  21281.59554391  .00000269  00000-0  36942-4 0  9990","SITE":"AFETR","TLE_LINE2":"2 46782  53.0540 353.0930 0001308 100.6005 259.5131 15.06390058 53688","SEMIMAJOR_AXIS":"6925.379","MEAN_ELEMENT_THEORY":"SGP4","FILE":"3152020","EPHEMERIS_TYPE":"0","CENTER_NAME":"EARTH","ELEMENT_SET_NO":"999","TIME_SYSTEM":"UTC","MEAN_ANOMALY":"259.5131","CLASSIFICATION_TYPE":"U","OBJECT_ID":"2020-074AV","BSTAR":"0.00003694200000","ECCENTRICITY":"0.00013080","REF_FRAME":"TEME","NORAD_CAT_ID":"46782","OBJECT_NAME":"STARLINK-1835","APOAPSIS":"548.150","PERIOD":"95.593","ARG_OF_PERICENTER":"100.6005","MEAN_MOTION_DOT":"0.00000269"},{"LAUNCH_DATE":"2020-10-24","MEAN_MOTION_DDOT":"0.0000000000000","REV_AT_EPOCH":"5368","EPOCH":"2021-10-08T14:38:48.859872","DECAY_DATE":null,"INCLINATION":"53.0576","GP_ID":"186596128","OBJECT_TYPE":"PAYLOAD","RA_OF_ASC_NODE":"353.0061","MEAN_MOTION":"15.06394943","COUNTRY_CODE":"US","PERIAPSIS":"546.429","RCS_SIZE":"LARGE","TLE_LINE1":"1 46783U 20074AW  21281.61028773 -.00001158  00000-0 -58889-4 0  9998","SITE":"AFETR","TLE_LINE2":"2 46783  53.0576 353.0061 0001155  99.4044 260.7075 15.06394943 53689","MEAN_ELEMENT_THEORY":"SGP4","FILE":"3152020","SEMIMAJOR_AXIS":"6925.364","EPHEMERIS_TYPE":"0","CENTER_NAME":"EARTH","MEAN_ANOMALY":"260.7075","ELEMENT_SET_NO":"999","TIME_SYSTEM":"UTC","OBJECT_ID":"2020-074AW","BSTAR":"-0.00005888900000","ECCENTRICITY":"0.00011550","CLASSIFICATION_TYPE":"U","PERIOD":"95.592","ARG_OF_PERICENTER":"99.4044","MEAN_MOTION_DOT":"-0.00001158","REF_FRAME":"TEME","NORAD_CAT_ID":"46783","OBJECT_NAME":"STARLINK-1851","APOAPSIS":"548.029"},{"SEMIMAJOR_AXIS":"6925.329","FILE":"3151292","MEAN_ELEMENT_THEORY":"SGP4","TLE_LINE1":"1 46784U 20074AX  21281.54762310  .00001060  00000-0  90050-4 0  9999","PERIAPSIS":"546.406","RCS_SIZE":"LARGE","SITE":"AFETR","TLE_LINE2":"2 46784  53.0556 353.2833 0001137  96.9846 263.1273 15.06406456 53678","MEAN_MOTION":"15.06406456","RA_OF_ASC_NODE":"353.2833","COUNTRY_CODE":"US","OBJECT_TYPE":"PAYLOAD","DECAY_DATE":null,"EPOCH":"2021-10-08T13:08:34.635840","GP_ID":"186557039","INCLINATION":"53.0556","LAUNCH_DATE":"2020-10-24","REV_AT_EPOCH":"5367","MEAN_MOTION_DDOT":"0.0000000000000","REF_FRAME":"TEME","NORAD_CAT_ID":"46784","APOAPSIS":"547.981","OBJECT_NAME":"STARLINK-1882","PERIOD":"95.592","ARG_OF_PERICENTER":"96.9846","MEAN_MOTION_DOT":"0.00001060","CLASSIFICATION_TYPE":"U","OBJECT_ID":"2020-074AX","ECCENTRICITY":"0.00011370","BSTAR":"0.00009005000000","TIME_SYSTEM":"UTC","ELEMENT_SET_NO":"999","MEAN_ANOMALY":"263.1273","CENTER_NAME":"EARTH","EPHEMERIS_TYPE":"0"},{"RCS_SIZE":"LARGE","PERIAPSIS":"543.329","TLE_LINE1":"1 46785U 20074AY  21281.53287556  .00000378  00000-0  44374-4 0  9992","SITE":"AFETR","TLE_LINE2":"2 46785  53.0572 353.3676 0005594 174.0267 186.0790 15.06403439 53674","SEMIMAJOR_AXIS":"6925.338","FILE":"3151292","MEAN_ELEMENT_THEORY":"SGP4","EPOCH":"2021-10-08T12:47:20.448384","DECAY_DATE":null,"INCLINATION":"53.0572","GP_ID":"186555792","LAUNCH_DATE":"2020-10-24","MEAN_MOTION_DDOT":"0.0000000000000","REV_AT_EPOCH":"5367","RA_OF_ASC_NODE":"353.3676","MEAN_MOTION":"15.06403439","COUNTRY_CODE":"US","OBJECT_TYPE":"PAYLOAD","CLASSIFICATION_TYPE":"U","OBJECT_ID":"2020-074AY","BSTAR":"0.00004437400000","ECCENTRICITY":"0.00055940","REF_FRAME":"TEME","NORAD_CAT_ID":"46785","OBJECT_NAME":"STARLINK-1883","APOAPSIS":"551.077","PERIOD":"95.592","ARG_OF_PERICENTER":"174.0267","MEAN_MOTION_DOT":"0.00000378","EPHEMERIS_TYPE":"0","CENTER_NAME":"EARTH","ELEMENT_SET_NO":"999","TIME_SYSTEM":"UTC","MEAN_ANOMALY":"186.0790"},{"COUNTRY_CODE":"US","RA_OF_ASC_NODE":"331.9585","MEAN_MOTION":"15.06399534","OBJECT_TYPE":"PAYLOAD","INCLINATION":"53.0514","GP_ID":"186595377","EPOCH":"2021-10-08T20:15:50.672736","DECAY_DATE":null,"MEAN_MOTION_DDOT":"0.0000000000000","REV_AT_EPOCH":"5400","LAUNCH_DATE":"2020-10-24","SEMIMAJOR_AXIS":"6925.350","FILE":"3152020","MEAN_ELEMENT_THEORY":"SGP4","TLE_LINE2":"2 46786  53.0514 331.9585 0005298 351.5367   8.5532 15.06399534 54006","SITE":"AFETR","RCS_SIZE":"LARGE","PERIAPSIS":"543.546","TLE_LINE1":"1 46786U 20074AZ  21281.84433649 -.00000042  00000-0  16214-4 0  9994","ELEMENT_SET_NO":"999","TIME_SYSTEM":"UTC","MEAN_ANOMALY":"8.5532","EPHEMERIS_TYPE":"0","CENTER_NAME":"EARTH","OBJECT_NAME":"STARLINK-1893","APOAPSIS":"550.884","REF_FRAME":"TEME","NORAD_CAT_ID":"46786","MEAN_MOTION_DOT":"-0.00000042","PERIOD":"95.592","ARG_OF_PERICENTER":"351.5367","CLASSIFICATION_TYPE":"U","BSTAR":"0.00001621400000","ECCENTRICITY":"0.00052980","OBJECT_ID":"2020-074AZ"},{"EPHEMERIS_TYPE":"0","CENTER_NAME":"EARTH","ELEMENT_SET_NO":"999","TIME_SYSTEM":"UTC","MEAN_ANOMALY":"59.2874","CLASSIFICATION_TYPE":"U","BSTAR":"0.00003407600000","ECCENTRICITY":"0.00047090","OBJECT_ID":"2020-074BA","OBJECT_NAME":"STARLINK-1899","APOAPSIS":"550.503","REF_FRAME":"TEME","NORAD_CAT_ID":"46787","MEAN_MOTION_DOT":"0.00000225","ARG_OF_PERICENTER":"300.7651","PERIOD":"95.593","INCLINATION":"53.0510","GP_ID":"186596629","EPOCH":"2021-10-08T20:05:13.363872","DECAY_DATE":null,"MEAN_MOTION_DDOT":"0.0000000000000","REV_AT_EPOCH":"5400","LAUNCH_DATE":"2020-10-24","COUNTRY_CODE":"US","RA_OF_ASC_NODE":"331.9967","MEAN_MOTION":"15.06390883","OBJECT_TYPE":"PAYLOAD","SITE":"AFETR","TLE_LINE2":"2 46787  53.0510 331.9967 0004709 300.7651  59.2874 15.06390883 54005","RCS_SIZE":"LARGE","PERIAPSIS":"543.980","TLE_LINE1":"1 46787U 20074BA  21281.83696023  .00000225  00000-0  34076-4 0  9999","SEMIMAJOR_AXIS":"6925.377","FILE":"3152020","MEAN_ELEMENT_THEORY":"SGP4"},{"EPOCH":"2021-10-08T13:32:28.130208","DECAY_DATE":null,"INCLINATION":"53.0577","GP_ID":"186596876","LAUNCH_DATE":"2020-10-24","MEAN_MOTION_DDOT":"0.0000000000000","REV_AT_EPOCH":"5396","RA_OF_ASC_NODE":"333.2183","MEAN_MOTION":"15.06401101","COUNTRY_CODE":"US","OBJECT_TYPE":"PAYLOAD","RCS_SIZE":"LARGE","PERIAPSIS":"542.720","TLE_LINE1":"1 46788U 20074BB  21281.56421447  .00001117  00000-0  93962-4 0  9996","TLE_LINE2":"2 46788  53.0577 333.2183 0006484 352.4480   7.6411 15.06401101 53964","SITE":"AFETR","SEMIMAJOR_AXIS":"6925.345","MEAN_ELEMENT_THEORY":"SGP4","FILE":"3152020","EPHEMERIS_TYPE":"0","CENTER_NAME":"EARTH","ELEMENT_SET_NO":"999","TIME_SYSTEM":"UTC","MEAN_ANOMALY":"7.6411","CLASSIFICATION_TYPE":"U","OBJECT_ID":"2020-074BB","BSTAR":"0.00009396200000","ECCENTRICITY":"0.00064840","NORAD_CAT_ID":"46788","REF_FRAME":"TEME","OBJECT_NAME":"STARLINK-1929","APOAPSIS":"551.701","ARG_OF_PERICENTER":"352.4480","PERIOD":"95.592","MEAN_MOTION_DOT":"0.00001117"},{"GP_ID":"186595628","INCLINATION":"53.0550","DECAY_DATE":null,"EPOCH":"2021-10-08T15:18:34.807968","REV_AT_EPOCH":"5355","MEAN_MOTION_DDOT":"0.0000000000000","LAUNCH_DATE":"2020-10-24","COUNTRY_CODE":"US","MEAN_MOTION":"15.06401944","RA_OF_ASC_NODE":"2.8905","OBJECT_TYPE":"PAYLOAD","SITE":"AFETR","TLE_LINE2":"2 46789  53.0550   2.8905 0000970  98.2791 261.8308 15.06401944 53550","TLE_LINE1":"1 46789U 20074BC  21281.63790287  .00000429  00000-0  47674-4 0  9990","PERIAPSIS":"546.536","RCS_SIZE":"LARGE","SEMIMAJOR_AXIS":"6925.343","FILE":"3152020","MEAN_ELEMENT_THEORY":"SGP4","CENTER_NAME":"EARTH","EPHEMERIS_TYPE":"0","TIME_SYSTEM":"UTC","ELEMENT_SET_NO":"999","MEAN_ANOMALY":"261.8308","CLASSIFICATION_TYPE":"U","ECCENTRICITY":"0.00009700","BSTAR":"0.00004767400000","OBJECT_ID":"2020-074BC","APOAPSIS":"547.879","OBJECT_NAME":"STARLINK-1930","NORAD_CAT_ID":"46789","REF_FRAME":"TEME","MEAN_MOTION_DOT":"0.00000429","ARG_OF_PERICENTER":"98.2791","PERIOD":"95.592"},{"OBJECT_ID":"2020-074BD","BSTAR":"0.00004233500000","ECCENTRICITY":"0.00012140","CLASSIFICATION_TYPE":"U","ARG_OF_PERICENTER":"97.7166","PERIOD":"95.592","MEAN_MOTION_DOT":"0.00000349","REF_FRAME":"TEME","NORAD_CAT_ID":"46790","OBJECT_NAME":"STARLINK-1931","APOAPSIS":"548.045","EPHEMERIS_TYPE":"0","CENTER_NAME":"EARTH","MEAN_ANOMALY":"262.3961","ELEMENT_SET_NO":"999","TIME_SYSTEM":"UTC","RCS_SIZE":"LARGE","PERIAPSIS":"546.363","TLE_LINE1":"1 46790U 20074BD  21281.55038386  .00000349  00000-0  42335-4 0  9998","SITE":"AFETR","TLE_LINE2":"2 46790  53.0565   3.2728 0001214  97.7166 262.3961 15.06403085 53535","MEAN_ELEMENT_THEORY":"SGP4","FILE":"3151292","SEMIMAJOR_AXIS":"6925.339","LAUNCH_DATE":"2020-10-24","MEAN_MOTION_DDOT":"0.0000000000000","REV_AT_EPOCH":"5353","EPOCH":"2021-10-08T13:12:33.165504","DECAY_DATE":null,"INCLINATION":"53.0565","GP_ID":"186556542","OBJECT_TYPE":"PAYLOAD","RA_OF_ASC_NODE":"3.2728","MEAN_MOTION":"15.06403085","COUNTRY_CODE":"US"}];
